[{"OBJECT_NAME":"OBJECT J","OBJECT_ID":"2023-085J","EPOCH":"2026-03-09T22:47:59.920512","MEAN_MOTION":15.31507187,"ECCENTRICITY":0.00067028,"INCLINATION":97.4828,"RA_OF_ASC_NODE":180.1819,"ARG_OF_PERICENTER":41.7877,"MEAN_ANOMALY":318.3875,"EPHEMERIS_TYPE":0,"CLASSIFICATION_TYPE":"U","NORAD_CAT_ID":57012,"ELEMENT_SET_NO":999,"REV_AT_EPOCH":15156,"BSTAR":0.00064525349,"MEAN_MOTION_DOT":0.00019595,"MEAN_MOTION_DDOT":0},{"OBJECT_NAME":"STARLINK-33621","OBJECT_ID":"2025-063N","EPOCH":"2026-03-09T22:20:22.551648","MEAN_MOTION":15.30221212,"ECCENTRICITY":0.0001866,"INCLINATION":53.1606,"RA_OF_ASC_NODE":48.6935,"ARG_OF_PERICENTER":96.4994,"MEAN_ANOMALY":263.622,"EPHEMERIS_TYPE":0,"CLASSIFICATION_TYPE":"U","NORAD_CAT_ID":63375,"ELEMENT_SET_NO":999,"REV_AT_EPOCH":5478,"BSTAR":0.0013593555,"MEAN_MOTION_DOT":0.00040146,"MEAN_MOTION_DDOT":0}]
